{
  "type": "FeatureCollection",
  "features": [
    {
      "type": "Feature",
      "properties": {
        "norad_id": 33860,
        "name": "IRIDIUM 33 DEB",
        "group": "iridium-33-debris",
        "lat": 64.64577449407949,
        "lon": -161.0946416747118,
        "alt_km": 665.9448235242435,
        "timestamp": "2025-12-14T05:42:18.846576+00:00",
        "meta_object_name": "IRIDIUM 33 DEB",
        "meta_object_id": "1997-051AD",
        "meta_epoch": "2025-12-13T15:00:21.453120",
        "meta_mean_motion": 14.67386178,
        "meta_eccentricity": 0.00073265,
        "meta_inclination": 86.3837,
        "meta_ra_of_asc_node": 26.8461,
        "meta_arg_of_pericenter": 354.8244,
        "meta_mean_anomaly": 126.8398,
        "meta_ephemeris_type": 0,
        "meta_classification_type": "U",
        "meta_norad_cat_id": 33860,
        "meta_element_set_no": 999,
        "meta_rev_at_epoch": 88735,
        "meta_bstar": 0.0013684197,
        "meta_mean_motion_dot": 7.759e-05,
        "meta_mean_motion_ddot": 0,
        "tle_line1": "1 33860U 97051AD  25347.62524830  .00007759  00000+0  13684-2 0  9994",
        "tle_line2": "2 33860  86.3837  26.8461 0007326 354.8244 126.8398 14.67386178887351"
      },
      "geometry": {
        "type": "Point",
        "coordinates": [
          -161.0946416747118,
          64.64577449407949
        ]
      }
    },
    {
      "type": "Feature",
      "properties": {
        "norad_id": 33862,
        "name": "IRIDIUM 33 DEB",
        "group": "iridium-33-debris",
        "lat": 17.590235782391883,
        "lon": -144.2710334025985,
        "alt_km": 668.3171092039556,
        "timestamp": "2025-12-14T05:42:18.846588+00:00",
        "meta_object_name": "IRIDIUM 33 DEB",
        "meta_object_id": "1997-051AF",
        "meta_epoch": "2025-12-13T16:27:58.262400",
        "meta_mean_motion": 14.69501586,
        "meta_eccentricity": 0.00533566,
        "meta_inclination": 86.4091,
        "meta_ra_of_asc_node": 37.1129,
        "meta_arg_of_pericenter": 66.0072,
        "meta_mean_anomaly": 59.323,
        "meta_ephemeris_type": 0,
        "meta_classification_type": "U",
        "meta_norad_cat_id": 33862,
        "meta_element_set_no": 999,
        "meta_rev_at_epoch": 88837,
        "meta_bstar": 0.0015966515,
        "meta_mean_motion_dot": 9.702e-05,
        "meta_mean_motion_ddot": 0,
        "tle_line1": "1 33862U 97051AF  25347.68609100  .00009702  00000+0  15967-2 0  9992",
        "tle_line2": "2 33862  86.4091  37.1129 0053356  66.0072  59.3230 14.69501586888379"
      },
      "geometry": {
        "type": "Point",
        "coordinates": [
          -144.2710334025985,
          17.590235782391883
        ]
      }
    },
    {
      "type": "Feature",
      "properties": {
        "norad_id": 33866,
        "name": "IRIDIUM 33 DEB",
        "group": "iridium-33-debris",
        "lat": -11.537188351858854,
        "lon": 91.64473556303193,
        "alt_km": 892.4445389564125,
        "timestamp": "2025-12-14T05:42:18.846599+00:00",
        "meta_object_name": "IRIDIUM 33 DEB",
        "meta_object_id": "1997-051AK",
        "meta_epoch": "2025-12-13T12:59:05.447328",
        "meta_mean_motion": 14.25280553,
        "meta_eccentricity": 0.01145356,
        "meta_inclination": 86.2997,
        "meta_ra_of_asc_node": 92.6964,
        "meta_arg_of_pericenter": 158.8581,
        "meta_mean_anomaly": 217.5197,
        "meta_ephemeris_type": 0,
        "meta_classification_type": "U",
        "meta_norad_cat_id": 33866,
        "meta_element_set_no": 999,
        "meta_rev_at_epoch": 86822,
        "meta_bstar": 0.0010551308,
        "meta_mean_motion_dot": 2.677e-05,
        "meta_mean_motion_ddot": 0,
        "tle_line1": "1 33866U 97051AK  25347.54103527  .00002677  00000+0  10551-2 0  9991",
        "tle_line2": "2 33866  86.2997  92.6964 0114535 158.8581 217.5197 14.25280553868223"
      },
      "geometry": {
        "type": "Point",
        "coordinates": [
          91.64473556303193,
          -11.537188351858854
        ]
      }
    },
    {
      "type": "Feature",
      "properties": {
        "norad_id": 33867,
        "name": "IRIDIUM 33 DEB",
        "group": "iridium-33-debris",
        "lat": 79.42758173748985,
        "lon": 9.241816273081282,
        "alt_km": 338.6759720762475,
        "timestamp": "2025-12-14T05:42:18.846611+00:00",
        "meta_object_name": "IRIDIUM 33 DEB",
        "meta_object_id": "1997-051AL",
        "meta_epoch": "2025-12-13T11:00:51.103584",
        "meta_mean_motion": 15.69513123,
        "meta_eccentricity": 0.00135062,
        "meta_inclination": 86.3647,
        "meta_ra_of_asc_node": 349.7316,
        "meta_arg_of_pericenter": 86.7609,
        "meta_mean_anomaly": 273.5205,
        "meta_ephemeris_type": 0,
        "meta_classification_type": "U",
        "meta_norad_cat_id": 33867,
        "meta_element_set_no": 999,
        "meta_rev_at_epoch": 89522,
        "meta_bstar": 0.009754286,
        "meta_mean_motion_dot": 0.01280958,
        "meta_mean_motion_ddot": 0,
        "tle_line1": "1 33867U 97051AL  25347.45892481  .01280958  00000+0  97543-2 0  9993",
        "tle_line2": "2 33867  86.3647 349.7316 0013506  86.7609 273.5205 15.69513123895223"
      },
      "geometry": {
        "type": "Point",
        "coordinates": [
          9.241816273081282,
          79.42758173748985
        ]
      }
    },
    {
      "type": "Feature",
      "properties": {
        "norad_id": 33870,
        "name": "IRIDIUM 33 DEB",
        "group": "iridium-33-debris",
        "lat": -18.56668118514859,
        "lon": -121.16119678028613,
        "alt_km": 730.4425044877025,
        "timestamp": "2025-12-14T05:42:18.846622+00:00",
        "meta_object_name": "IRIDIUM 33 DEB",
        "meta_object_id": "1997-051AP",
        "meta_epoch": "2025-12-13T16:12:19.115136",
        "meta_mean_motion": 14.4585926,
        "meta_eccentricity": 0.00215612,
        "meta_inclination": 86.3746,
        "meta_ra_of_asc_node": 57.8596,
        "meta_arg_of_pericenter": 175.0874,
        "meta_mean_anomaly": 337.312,
        "meta_ephemeris_type": 0,
        "meta_classification_type": "U",
        "meta_norad_cat_id": 33870,
        "meta_element_set_no": 999,
        "meta_rev_at_epoch": 88150,
        "meta_bstar": 0.00098702425,
        "meta_mean_motion_dot": 3.533e-05,
        "meta_mean_motion_ddot": 0,
        "tle_line1": "1 33870U 97051AP  25347.67522124  .00003533  00000+0  98702-3 0  9995",
        "tle_line2": "2 33870  86.3746  57.8596 0021561 175.0874 337.3120 14.45859260881509"
      },
      "geometry": {
        "type": "Point",
        "coordinates": [
          -121.16119678028613,
          -18.56668118514859
        ]
      }
    },
    {
      "type": "Feature",
      "properties": {
        "norad_id": 33881,
        "name": "IRIDIUM 33 DEB",
        "group": "iridium-33-debris",
        "lat": 55.817756140855934,
        "lon": -79.24902518303553,
        "alt_km": 668.4719364752027,
        "timestamp": "2025-12-14T05:42:18.846633+00:00",
        "meta_object_name": "IRIDIUM 33 DEB",
        "meta_object_id": "1997-051BA",
        "meta_epoch": "2025-12-13T14:22:24.801024",
        "meta_mean_motion": 14.56598716,
        "meta_eccentricity": 0.0061436,
        "meta_inclination": 86.3857,
        "meta_ra_of_asc_node": 106.3688,
        "meta_arg_of_pericenter": 171.9908,
        "meta_mean_anomaly": 204.794,
        "meta_ephemeris_type": 0,
        "meta_classification_type": "U",
        "meta_norad_cat_id": 33881,
        "meta_element_set_no": 999,
        "meta_rev_at_epoch": 87513,
        "meta_bstar": 0.0023975957,
        "meta_mean_motion_dot": 0.0001099,
        "meta_mean_motion_ddot": 0,
        "tle_line1": "1 33881U 97051BA  25347.59889816  .00010990  00000+0  23976-2 0  9997",
        "tle_line2": "2 33881  86.3857 106.3688 0061436 171.9908 204.7940 14.56598716875131"
      },
      "geometry": {
        "type": "Point",
        "coordinates": [
          -79.24902518303553,
          55.817756140855934
        ]
      }
    },
    {
      "type": "Feature",
      "properties": {
        "norad_id": 33884,
        "name": "IRIDIUM 33 DEB",
        "group": "iridium-33-debris",
        "lat": -3.456814940650917,
        "lon": -170.63772764963323,
        "alt_km": 645.6781672728848,
        "timestamp": "2025-12-14T05:42:18.846643+00:00",
        "meta_object_name": "IRIDIUM 33 DEB",
        "meta_object_id": "1997-051BD",
        "meta_epoch": "2025-12-13T14:48:38.291904",
        "meta_mean_motion": 14.77455092,
        "meta_eccentricity": 0.00096969,
        "meta_inclination": 86.3704,
        "meta_ra_of_asc_node": 9.4226,
        "meta_arg_of_pericenter": 320.4846,
        "meta_mean_anomaly": 164.1732,
        "meta_ephemeris_type": 0,
        "meta_classification_type": "U",
        "meta_norad_cat_id": 33884,
        "meta_element_set_no": 999,
        "meta_rev_at_epoch": 88860,
        "meta_bstar": 0.0017122447,
        "meta_mean_motion_dot": 0.00012236,
        "meta_mean_motion_ddot": 0,
        "tle_line1": "1 33884U 97051BD  25347.61710986  .00012236  00000+0  17122-2 0  9995",
        "tle_line2": "2 33884  86.3704   9.4226 0009696 320.4846 164.1732 14.77455092888604"
      },
      "geometry": {
        "type": "Point",
        "coordinates": [
          -170.63772764963323,
          -3.456814940650917
        ]
      }
    }
  ]
}